[{"OBJECT_NAME":"CANX-4","OBJECT_ID":"2014-034C","EPOCH":"2026-03-09T13:49:15.377088","MEAN_MOTION":14.8106136,"ECCENTRICITY":0.0012356,"INCLINATION":98.3276,"RA_OF_ASC_NODE":300.1593,"ARG_OF_PERICENTER":336.897,"MEAN_ANOMALY":23.1684,"EPHEMERIS_TYPE":0,"CLASSIFICATION_TYPE":"U","NORAD_CAT_ID":40055,"ELEMENT_SET_NO":999,"REV_AT_EPOCH":62978,"BSTAR":0.00019272,"MEAN_MOTION_DOT":1.439e-5,"MEAN_MOTION_DDOT":0},{"OBJECT_NAME":"FENGYUN 1C DEB","OBJECT_ID":"1999-025BKG","EPOCH":"2026-03-07T13:45:43.096608","MEAN_MOTION":14.85582818,"ECCENTRICITY":0.0064954,"INCLINATION":96.5618,"RA_OF_ASC_NODE":101.964,"ARG_OF_PERICENTER":251.088,"MEAN_ANOMALY":261.3714,"EPHEMERIS_TYPE":0,"CLASSIFICATION_TYPE":"U","NORAD_CAT_ID":31202,"ELEMENT_SET_NO":999,"REV_AT_EPOCH":335,"BSTAR":0.0013766,"MEAN_MOTION_DOT":0.00012341,"MEAN_MOTION_DDOT":0}]
